0 SL-8 R/B
1 24306U 96052C   13283.08994129 -.00000051  00000-0 -69214-4 0  2768
2 24306 082.9337 258.5166 0026826 170.4976 189.6694 13.74799795857723
0 SL-8 R/B
1 24306U 96052C   13284.10884842 -.00000039  00000-0 -57051-4 0  2775
2 24306 082.9338 257.7611 0026889 167.6853 192.4966 13.74799893857869
0 SL-8 R/B
1 24306U 96052C   13285.49165096 -.00000029  00000-0 -46748-4 0  2782
2 24306 082.9340 256.7357 0026972 163.8916 196.3104 13.74799812858059
0 SL-8 R/B
1 24306U 96052C   13286.51055796 -.00000026  00000-0 -43036-4 0  2796
2 24306 082.9341 255.9801 0027031 161.1008 199.1158 13.74799746858196
0 SL-8 R/B
1 24306U 96052C   13287.52946477 -.00000021  00000-0 -38451-4 0  2805
2 24306 082.9343 255.2245 0027079 158.4354 201.7949 13.74799580858338
0 SL-8 R/B
1 24306U 96052C   13288.83948792 -.00000010  00000-0 -26831-4 0  2810
2 24306 082.9345 254.2530 0027144 154.9625 205.2854 13.74799388858511
0 SL-8 R/B
1 24306U 96052C   13289.85839480  .00000004  00000-0 -11432-4 0  2820
2 24306 082.9347 253.4975 0027195 152.2357 208.0257 13.74799352858650
0 SL-8 R/B
1 24306U 96052C   13291.02285993  .00000014  00000-0 -14848-5 0  2833
2 24306 082.9349 252.6341 0027250 149.0494 211.2275 13.74799325858812
0 SL-8 R/B
1 24306U 96052C   13292.04176699  .00000016  00000-0  18830-6 0  2846
2 24306 082.9351 251.8785 0027298 146.3135 213.9763 13.74799329858952
0 SL-8 R/B
1 24306U 96052C   13293.06067407  .00000019  00000-0  41365-5 0  2857
2 24306 082.9352 251.1231 0027356 143.5003 216.8024 13.74799392859098
0 SL-8 R/B
1 24306U 96052C   13294.80737164  .00000015  00000-0 -42809-6 0  2867
2 24306 082.9355 249.8282 0027399 138.8969 221.4258 13.74799558859338
0 SL-8 R/B
1 24306U 96052C   13296.19017334  .00000036  00000-0  21818-4 0  2879
2 24306 082.9353 248.8036 0027360 134.9457 225.3924 13.74799532859525
